[
    {
        "Altitude(m)": 716936.4915945476,
        "Argument of Periapsis(deg)": 0.007973084830638947,
        "Eccentricity": 0.0,
        "Inclination(deg)": 45.0,
        "Latitude(deg)": -42.85831413907199,
        "Longitude(deg)": 86.82554179189397,
        "Mean Anomaly(deg)": -106.47224834676344,
        "RAAN(deg)": 299.99247364097926,
        "Satellite Name": "Constellation 1 1335",
        "Satellite Number": 1335,
        "Semi-Major Axis(m)": 7083131.272910544,
        "Time(s)": 133
    },
    {
        "Altitude(m)": 716943.3097429245,
        "Argument of Periapsis(deg)": 0.008033032836884352,
        "Eccentricity": 0.0,
        "Inclination(deg)": 45.0,
        "Latitude(deg)": -42.87480373549463,
        "Longitude(deg)": 86.90074660291536,
        "Mean Anomaly(deg)": -106.4115472065135,
        "RAAN(deg)": 299.99241705181373,
        "Satellite Name": "Constellation 1 1335",
        "Satellite Number": 1335,
        "Semi-Major Axis(m)": 7083131.272910544,
        "Time(s)": 134
    },
    {
        "Altitude(m)": 716950.104949657,
        "Argument of Periapsis(deg)": 0.008092980843129758,
        "Eccentricity": 0.0,
        "Inclination(deg)": 45.0,
        "Latitude(deg)": -42.89123831782901,
        "Longitude(deg)": 86.97599348744308,
        "Mean Anomaly(deg)": -106.35084606626364,
        "RAAN(deg)": 299.99236046264815,
        "Satellite Name": "Constellation 1 1335",
        "Satellite Number": 1335,
        "Semi-Major Axis(m)": 7083131.272910544,
        "Time(s)": 135
    },
    {
        "Altitude(m)": 716956.877189746,
        "Argument of Periapsis(deg)": 0.008152928849375162,
        "Eccentricity": 0.0,
        "Inclination(deg)": 45.0,
        "Latitude(deg)": -42.90761782604261,
        "Longitude(deg)": 87.05128235129665,
        "Mean Anomaly(deg)": -106.29014492601375,
        "RAAN(deg)": 299.9923038734825,
        "Satellite Name": "Constellation 1 1335",
        "Satellite Number": 1335,
        "Semi-Major Axis(m)": 7083131.272910544,
        "Time(s)": 136
    },
    {
        "Altitude(m)": 716963.6264382803,
        "Argument of Periapsis(deg)": 0.008212876855620568,
        "Eccentricity": 0.0,
        "Inclination(deg)": 45.0,
        "Latitude(deg)": -42.9239422002228,
        "Longitude(deg)": 87.12661309973734,
        "Mean Anomaly(deg)": -106.22944378576378,
        "RAAN(deg)": 299.992247284317,
        "Satellite Name": "Constellation 1 1335",
        "Satellite Number": 1335,
        "Semi-Major Axis(m)": 7083131.272910544,
        "Time(s)": 137
    },
    {
        "Altitude(m)": 716970.3526704294,
        "Argument of Periapsis(deg)": 0.008272824861865974,
        "Eccentricity": 0.0,
        "Inclination(deg)": 45.0,
        "Latitude(deg)": -42.940211380577885,
        "Longitude(deg)": 87.20198563746827,
        "Mean Anomaly(deg)": -106.16874264551393,
        "RAAN(deg)": 299.9921906951514,
        "Satellite Name": "Constellation 1 1335",
        "Satellite Number": 1335,
        "Semi-Major Axis(m)": 7083131.272910544,
        "Time(s)": 138
    },
    {
        "Altitude(m)": 716977.0558614524,
        "Argument of Periapsis(deg)": 0.00833277286811138,
        "Eccentricity": 0.0,
        "Inclination(deg)": 45.0,
        "Latitude(deg)": -42.95642530743795,
        "Longitude(deg)": 87.27739986863484,
        "Mean Anomaly(deg)": -106.1080415052641,
        "RAAN(deg)": 299.9921341059859,
        "Satellite Name": "Constellation 1 1335",
        "Satellite Number": 1335,
        "Semi-Major Axis(m)": 7083131.272910544,
        "Time(s)": 139
    },
    {
        "Altitude(m)": 716983.7359866792,
        "Argument of Periapsis(deg)": 0.008392720874356788,
        "Eccentricity": 0.0,
        "Inclination(deg)": 45.0,
        "Latitude(deg)": -42.972583921255804,
        "Longitude(deg)": 87.35285569682468,
        "Mean Anomaly(deg)": -106.04734036501412,
        "RAAN(deg)": 299.9920775168203,
        "Satellite Name": "Constellation 1 1335",
        "Satellite Number": 1335,
        "Semi-Major Axis(m)": 7083131.272910544,
        "Time(s)": 140
    },
    {
        "Altitude(m)": 716990.3930215457,
        "Argument of Periapsis(deg)": 0.008452668880602192,
        "Eccentricity": 0.0,
        "Inclination(deg)": 45.0,
        "Latitude(deg)": -42.98868716260786,
        "Longitude(deg)": 87.42835285697063,
        "Mean Anomaly(deg)": -105.98663922476419,
        "RAAN(deg)": 299.9920209276547,
        "Satellite Name": "Constellation 1 1335",
        "Satellite Number": 1335,
        "Semi-Major Axis(m)": 7083131.272910544,
        "Time(s)": 141
    },
    {
        "Altitude(m)": 716997.0269415496,
        "Argument of Periapsis(deg)": 0.008512616886847598,
        "Eccentricity": 0.0,
        "Inclination(deg)": 45.0,
        "Latitude(deg)": -43.00473497219481,
        "Longitude(deg)": 87.50389158773793,
        "Mean Anomaly(deg)": -105.92593808451439,
        "RAAN(deg)": 299.99196433848914,
        "Satellite Name": "Constellation 1 1335",
        "Satellite Number": 1335,
        "Semi-Major Axis(m)": 7083131.272910544,
        "Time(s)": 142
    },
    {
        "Altitude(m)": 717003.6377222792,
        "Argument of Periapsis(deg)": 0.008572564893093004,
        "Eccentricity": 0.0,
        "Inclination(deg)": 45.0,
        "Latitude(deg)": -43.02072729084303,
        "Longitude(deg)": 87.5794716229448,
        "Mean Anomaly(deg)": -105.86523694426445,
        "RAAN(deg)": 299.99190774932356,
        "Satellite Name": "Constellation 1 1335",
        "Satellite Number": 1335,
        "Semi-Major Axis(m)": 7083131.272910544,
        "Time(s)": 143
    },
    {
        "Altitude(m)": 717010.2253394146,
        "Argument of Periapsis(deg)": 0.008632512899338408,
        "Eccentricity": 0.0,
        "Inclination(deg)": 45.0,
        "Latitude(deg)": -43.03666405950494,
        "Longitude(deg)": 87.65509286394797,
        "Mean Anomaly(deg)": -105.80453580401448,
        "RAAN(deg)": 299.99185116015803,
        "Satellite Name": "Constellation 1 1335",
        "Satellite Number": 1335,
        "Semi-Major Axis(m)": 7083131.272910544,
        "Time(s)": 144
    },
    {
        "Altitude(m)": 717016.7897687119,
        "Argument of Periapsis(deg)": 0.008692460905583814,
        "Eccentricity": 0.0,
        "Inclination(deg)": 45.0,
        "Latitude(deg)": -43.05254521926025,
        "Longitude(deg)": 87.73075521154716,
        "Mean Anomaly(deg)": -105.74383466376464,
        "RAAN(deg)": 299.99179457099245,
        "Satellite Name": "Constellation 1 1335",
        "Satellite Number": 1335,
        "Semi-Major Axis(m)": 7083131.272910544,
        "Time(s)": 145
    },
    {
        "Altitude(m)": 717023.3309860157,
        "Argument of Periapsis(deg)": 0.00875240891182922,
        "Eccentricity": 0.0,
        "Inclination(deg)": 45.0,
        "Latitude(deg)": -43.06837071131676,
        "Longitude(deg)": 87.80645856598505,
        "Mean Anomaly(deg)": -105.68313352351478,
        "RAAN(deg)": 299.9917379818269,
        "Satellite Name": "Constellation 1 1335",
        "Satellite Number": 1335,
        "Semi-Major Axis(m)": 7083131.272910544,
        "Time(s)": 146
    },
    {
        "Altitude(m)": 717029.8489672538,
        "Argument of Periapsis(deg)": 0.008812356918074627,
        "Eccentricity": 0.0,
        "Inclination(deg)": 45.0,
        "Latitude(deg)": -43.084140477011154,
        "Longitude(deg)": 87.88220282694733,
        "Mean Anomaly(deg)": -105.62243238326488,
        "RAAN(deg)": 299.9916813926613,
        "Satellite Name": "Constellation 1 1335",
        "Satellite Number": 1335,
        "Semi-Major Axis(m)": 7083131.272910544,
        "Time(s)": 147
    },
    {
        "Altitude(m)": 717036.3436884356,
        "Argument of Periapsis(deg)": 0.008872304924320031,
        "Eccentricity": 0.0,
        "Inclination(deg)": 45.0,
        "Latitude(deg)": -43.09985445781011,
        "Longitude(deg)": 87.9579877254663,
        "Mean Anomaly(deg)": -105.56173124301495,
        "RAAN(deg)": 299.9916248034957,
        "Satellite Name": "Constellation 1 1335",
        "Satellite Number": 1335,
        "Semi-Major Axis(m)": 7083131.272910544,
        "Time(s)": 148
    },
    {
        "Altitude(m)": 717042.8151256641,
        "Argument of Periapsis(deg)": 0.008932252930565437,
        "Eccentricity": 0.0,
        "Inclination(deg)": 45.0,
        "Latitude(deg)": -43.11551259531088,
        "Longitude(deg)": 88.03381349630759,
        "Mean Anomaly(deg)": -105.50103010276507,
        "RAAN(deg)": 299.99156821433013,
        "Satellite Name": "Constellation 1 1335",
        "Satellite Number": 1335,
        "Semi-Major Axis(m)": 7083131.272910544,
        "Time(s)": 149
    },
    {
        "Altitude(m)": 717049.2632551133,
        "Argument of Periapsis(deg)": 0.008992200936810843,
        "Eccentricity": 0.0,
        "Inclination(deg)": 45.0,
        "Latitude(deg)": -43.13111483124264,
        "Longitude(deg)": 88.10967986939077,
        "Mean Anomaly(deg)": -105.44032896251514,
        "RAAN(deg)": 299.9915116251646,
        "Satellite Name": "Constellation 1 1335",
        "Satellite Number": 1335,
        "Semi-Major Axis(m)": 7083131.272910544,
        "Time(s)": 150
    },
    {
        "Altitude(m)": 717055.6880530539,
        "Argument of Periapsis(deg)": 0.009052148943056249,
        "Eccentricity": 0.0,
        "Inclination(deg)": 45.0,
        "Latitude(deg)": -43.14666110746695,
        "Longitude(deg)": 88.18558674217572,
        "Mean Anomaly(deg)": -105.37962782226526,
        "RAAN(deg)": 299.991455035999,
        "Satellite Name": "Constellation 1 1335",
        "Satellite Number": 1335,
        "Semi-Major Axis(m)": 7083131.272910544,
        "Time(s)": 151
    }
]